{"fetched_at":"2026-03-30T06:02:59Z","count":15439,"tles":[{"name":"STARLINK-4627","line1":"1 53711U 22107M   26087.61424544 -.00000023  00000+0  16667-4 0  9997","line2":"2 53711  53.2176 163.9697 0001507  96.7347 263.3817 15.08842570197336","category":"Starlink"}]}