{
  "norad_id": 53711,
  "name": "STARLINK-4627",
  "history": [
    {
      "epoch": "2026-03-28T14:44:30.806016Z",
      "apogee_km": 540.7780569041988,
      "perigee_km": 538.693010122598,
      "latitude_deg": 2.7001540855865182e-05,
      "longitude_deg": 116.8091979288837,
      "height_km": 540.7533242964305,
      "semi_major_axis_km": 6917.872533513398,
      "eccentricity": 0.0001507,
      "inclination_deg": 53.2176,
      "raan_deg": 163.9697,
      "arg_perigee_deg": 96.7347,
      "mean_anomaly_deg": 263.3817,
      "mean_motion_rev_day": 15.0884257
    }
  ]
}